NORAD_CAT_ID,OBJECT_NAME,OBJECT_TYPE,EPOCH,MEAN_MOTION,ECCENTRICITY,INCLINATION,RA_OF_ASC_NODE,ARG_OF_PERICENTER,MEAN_ANOMALY,BSTAR,MEAN_MOTION_DOT,MEAN_MOTION_DDOT,TLE_LINE0,TLE_LINE1,TLE_LINE2,SEMIMAJOR_AXIS,PERIOD,APOGEE,PERIGEE,DECAYED
54002.0,STARLINK-5109,PAYLOAD,2023-11-03 17:17:22,15.08833623,0.0001555,53.2174,90.9431,79.3613,280.7554,1.3295e-05,-7.6e-07,0.0,0 STARLINK-5109,1 54002U 22125AQ  23307.72039488 -.00000076  00000-0  13295-4 0  9997,2 54002  53.2174  90.9431 0001555  79.3613 280.7554 15.08833623 60282,6917.9,95.438,540.841,538.689,0.0
54002.0,STARLINK-5109,PAYLOAD,2023-11-04 09:11:13,15.08841105,0.0001508,53.2177,87.9696,80.1126,280.0037,7.1255e-05,8.46e-06,0.0,0 STARLINK-5109,1 54002U 22125AQ  23308.38278951  .00000846  00000-0  71255-4 0  9994,2 54002  53.2177  87.9696 0001508  80.1126 280.0037 15.08841105 60385,6917.877,95.437,540.785,538.699,0.0
54002.0,STARLINK-5109,PAYLOAD,2023-11-04 13:57:22,15.08844496,0.0001373,53.2168,87.0778,82.9239,277.1909,0.00010375,1.364e-05,0.0,0 STARLINK-5109,1 54002U 22125AQ  23308.58150603  .00001364  00000-0  10375-3 0  9990,2 54002  53.2168  87.0778 0001373  82.9239 277.1909 15.08844496 60361,6917.867,95.437,540.681,538.782,0.0
54002.0,STARLINK-5109,PAYLOAD,2023-11-04 15:32:45,15.08845893,0.0001335,53.2166,86.7805,87.1461,272.9684,0.00012177,1.651e-05,0.0,0 STARLINK-5109,1 54002U 22125AQ  23308.64774492  .00001651  00000-0  12177-3 0  9996,2 54002  53.2166  86.7805 0001335  87.1461 272.9684 15.08845893 60374,6917.862,95.437,540.651,538.804,0.0
54002.0,STARLINK-5109,PAYLOAD,2023-11-05 02:40:26,15.08853337,0.0001256,53.2168,84.6991,93.9517,266.1619,9.6605e-05,1.25e-05,0.0,0 STARLINK-5109,1 54002U 22125AQ  23309.11141850  .00001250  00000-0  96605-4 0  9999,2 54002  53.2168  84.6991 0001256  93.9517 266.1619 15.08853337 60496,6917.84,95.437,540.574,538.836,0.0
54002.0,STARLINK-5109,PAYLOAD,2023-11-05 09:01:59,15.08842575,0.0001437,53.2161,83.5096,83.1185,276.997,0.00023066,3.385e-05,0.0,0 STARLINK-5109,1 54002U 22125AQ  23309.37638704  .00003385  00000-0  23066-3 0  9997,2 54002  53.2161  83.5096 0001437  83.1185 276.9970 15.08842575 60532,6917.873,95.437,540.732,538.743,0.0
54002.0,STARLINK-5109,PAYLOAD,2023-11-05 13:48:08,15.08847917,0.0001358,53.2156,82.6174,85.5937,274.521,0.00025874,3.833e-05,0.0,0 STARLINK-5109,1 54002U 22125AQ  23309.57510321  .00003833  00000-0  25874-3 0  9990,2 54002  53.2156  82.6174 0001358  85.5937 274.5210 15.08847917 60510,6917.856,95.437,540.661,538.782,0.0
54002.0,STARLINK-5109,PAYLOAD,2023-11-05 15:23:31,15.08852244,0.0001482,53.2151,82.3192,81.0374,279.0786,0.00028516,4.255e-05,0.0,0 STARLINK-5109,1 54002U 22125AQ  23309.64134093  .00004255  00000-0  28516-3 0  9991,2 54002  53.2151  82.3192 0001482  81.0374 279.0786 15.08852244 60579,6917.843,95.437,540.733,538.683,0.0
54002.0,STARLINK-5109,PAYLOAD,2023-11-06 13:38:57,15.08800778,0.0001229,53.2168,78.1557,57.4843,302.6268,-0.00067779,-0.00011047,0.0,0 STARLINK-5109,1 54002U 22125AQ  23310.56871952 -.00011047  00000-0 -67779-3 0  9999,2 54002  53.2168  78.1557 0001229  57.4843 302.6268 15.08800778 60665,6918.0,95.44,540.715,539.015,0.0
54002.0,STARLINK-5109,PAYLOAD,2023-11-06 15:14:21,15.0879319,0.0001348,53.216,77.8586,69.3537,290.76,-0.00073398,-0.00011935,0.0,0 STARLINK-5109,1 54002U 22125AQ  23310.63496728 -.00011935  00000-0 -73398-3 0  9991,2 54002  53.2160  77.8586 0001348  69.3537 290.7600 15.08793190 60722,6918.023,95.441,540.821,538.956,0.0
54002.0,STARLINK-5109,PAYLOAD,2023-11-07 11:54:22,15.08816287,0.000131,53.2157,73.9945,69.7606,290.3526,-0.00013571,-2.446e-05,0.0,0 STARLINK-5109,1 54002U 22125AQ  23311.49609322 -.00002446  00000-0 -13571-3 0  9996,2 54002  53.2157  73.9945 0001310  69.7606 290.3526 15.08816287 60854,6917.953,95.439,540.724,538.912,0.0
54002.0,STARLINK-5109,PAYLOAD,2023-11-07 15:05:08,15.08818464,0.000132,53.216,73.3979,73.5726,286.5411,-9.0586e-05,-1.728e-05,0.0,0 STARLINK-5109,1 54002U 22125AQ  23311.62857439 -.00001728  00000-0 -90586-4 0  9999,2 54002  53.2160  73.3979 0001320  73.5726 286.5411 15.08818464 60822,6917.946,95.439,540.724,538.898,0.0
54002.0,STARLINK-5109,PAYLOAD,2023-11-08 11:45:09,15.08837793,0.0001664,53.2176,69.5345,85.5837,274.5345,0.00031039,4.655e-05,0.0,0 STARLINK-5109,1 54002U 22125AQ  23312.48969084  .00004655  00000-0  31039-3 0  9991,2 54002  53.2176  69.5345 0001664  85.5837 274.5345 15.08837793 61000,6917.887,95.438,540.903,538.601,0.0
54002.0,STARLINK-5109,PAYLOAD,2023-11-08 13:20:31,15.08854161,0.0001618,53.2174,69.2344,76.9561,283.1612,0.00050282,7.726e-05,0.0,0 STARLINK-5109,1 54002U 22125AQ  23312.55592469  .00007726  00000-0  50282-3 0  9991,2 54002  53.2174  69.2344 0001618  76.9561 283.1612 15.08854161 60966,6917.837,95.437,540.821,538.583,0.0
54002.0,STARLINK-5109,PAYLOAD,2023-11-09 00:28:14,15.08841732,0.0001319,53.2183,67.1521,77.2158,282.8982,0.00070708,0.00010984,0.0,0 STARLINK-5109,1 54002U 22125AQ  23313.01961159  .00010984  00000-0  70708-3 0  9994,2 54002  53.2183  67.1521 0001319  77.2158 282.8982 15.08841732 61084,6917.875,95.437,540.653,538.828,0.0
54002.0,STARLINK-5109,PAYLOAD,2023-11-09 13:11:19,15.08841718,0.0001464,53.2198,64.7781,84.3131,275.8028,0.00025804,3.821e-05,0.0,0 STARLINK-5109,1 54002U 22125AQ  23313.54952838  .00003821  00000-0  25804-3 0  9995,2 54002  53.2198  64.7781 0001464  84.3131 275.8028 15.08841718 61113,6917.875,95.437,540.753,538.727,0.0
54002.0,STARLINK-5109,PAYLOAD,2023-11-10 14:37:28,15.08860169,0.0001505,53.2186,60.0171,62.4158,297.6987,4.7519e-05,4.69e-06,0.0,0 STARLINK-5109,1 54002U 22125AQ  23314.60935643  .00000469  00000-0  47519-4 0  9991,2 54002  53.2186  60.0171 0001505  62.4158 297.6987 15.08860169 61278,6917.819,95.436,540.725,538.643,0.0
54002.0,STARLINK-5109,PAYLOAD,2023-11-11 11:17:29,15.08843077,0.0001436,53.2183,56.1545,67.7503,292.3641,1.5554e-05,-4e-07,0.0,0 STARLINK-5109,1 54002U 22125AQ  23315.47048249 -.00000040  00000-0  15554-4 0  9994,2 54002  53.2183  56.1545 0001436  67.7503 292.3641 15.08843077 61459,6917.871,95.437,540.729,538.743,0.0
54002.0,STARLINK-5109,PAYLOAD,2023-11-11 14:28:15,15.08852471,0.000155,53.2183,55.5576,93.6545,266.4624,-1.2503e-05,-4.87e-06,0.0,0 STARLINK-5109,1 54002U 22125AQ  23315.60295468 -.00000487  00000-0 -12503-4 0  9993,2 54002  53.2183  55.5576 0001550  93.6545 266.4624 15.08852471 61425,6917.842,95.437,540.78,538.635,0.0
54002.0,STARLINK-5109,PAYLOAD,2023-11-12 00:00:34,15.08839398,0.000144,53.2182,53.7745,76.365,283.7502,2.81e-05,1.59e-06,0.0,0 STARLINK-5109,1 54002U 22125AQ  23316.00040161  .00000159  00000-0  28100-4 0  9990,2 54002  53.2182  53.7745 0001440  76.3650 283.7502 15.08839398 61537,6917.882,95.438,540.743,538.751,0.0
54002.0,STARLINK-5109,PAYLOAD,2023-11-12 12:43:39,15.08841855,0.0001269,53.2176,51.3952,89.4641,270.6496,-7.1163e-06,-4.01e-06,0.0,0 STARLINK-5109,1 54002U 22125AQ  23316.53032077 -.00000401  00000-0 -71163-5 0  9995,2 54002  53.2176  51.3952 0001269  89.4641 270.6496 15.08841855 61569,6917.875,95.437,540.618,538.862,0.0
54002.0,STARLINK-5109,PAYLOAD,2023-11-13 12:34:25,15.08854094,0.0001394,53.2178,46.9344,85.7198,274.3954,0.00015058,2.11e-05,0.0,0 STARLINK-5109,1 54002U 22125AQ  23317.52390651  .00002110  00000-0  15058-3 0  9996,2 54002  53.2178  46.9344 0001394  85.7198 274.3954 15.08854094 61762,6917.837,95.437,540.667,538.738,0.0
54002.0,STARLINK-5109,PAYLOAD,2023-11-14 12:25:14,15.08822582,0.0001812,53.2197,42.4712,95.6463,264.4736,0.00024134,3.553e-05,0.0,0 STARLINK-5109,1 54002U 22125AQ  23318.51752930  .00003553  00000-0  24134-3 0  9995,2 54002  53.2197  42.4712 0001812  95.6463 264.4736 15.08822582 61915,6917.934,95.439,541.052,538.545,0.0
54002.0,STARLINK-5109,PAYLOAD,2023-11-15 09:05:14,15.08845285,0.0001469,53.2192,38.6076,95.3524,264.7636,-3.0633e-05,-7.76e-06,0.0,0 STARLINK-5109,1 54002U 22125AQ  23319.37863929 -.00000776  00000-0 -30633-4 0  9999,2 54002  53.2192  38.6076 0001469  95.3524 264.7636 15.08845285 62045,6917.864,95.437,540.745,538.713,0.0
54002.0,STARLINK-5109,PAYLOAD,2023-11-15 12:16:00,15.08848723,0.0001516,53.2192,38.0133,92.8159,267.3007,-1.4683e-06,-3.11e-06,0.0,0 STARLINK-5109,1 54002U 22125AQ  23319.51111601 -.00000311  00000-0 -14683-5 0  9991,2 54002  53.2192  38.0133 0001516  92.8159 267.3007 15.08848723 62010,6917.854,95.437,540.767,538.67,0.0
54002.0,STARLINK-5109,PAYLOAD,2023-11-16 08:56:02,15.08830666,0.000153,53.2193,34.1485,95.991,264.1257,9.4577e-05,1.217e-05,0.0,0 STARLINK-5109,1 54002U 22125AQ  23320.37224740  .00001217  00000-0  94577-4 0  9999,2 54002  53.2193  34.1485 0001530  95.9910 264.1257 15.08830666 62191,6917.909,95.438,540.832,538.715,0.0
54002.0,STARLINK-5109,PAYLOAD,2023-11-16 21:39:07,15.08833423,0.0001516,53.2192,31.7702,94.9043,265.2122,6.2222e-05,7.02e-06,0.0,0 STARLINK-5109,1 54002U 22125AQ  23320.90216874  .00000702  00000-0  62222-4 0  9997,2 54002  53.2192  31.7702 0001516  94.9043 265.2122 15.08833423 62226,6917.9,95.438,540.814,538.717,0.0
54002.0,STARLINK-5109,PAYLOAD,2023-11-17 11:57:35,15.08843683,0.0001857,53.2193,29.0943,103.2389,256.881,2.3292e-05,8.3e-07,0.0,0 STARLINK-5109,1 54002U 22125AQ  23321.49832449  .00000083  00000-0  23292-4 0  9990,2 54002  53.2193  29.0943 0001857 103.2389 256.8810 15.08843683 62363,6917.869,95.437,541.019,538.449,0.0
54002.0,STARLINK-5109,PAYLOAD,2023-11-17 21:29:54,15.08838672,0.0001304,53.2194,27.3104,84.5235,275.5906,9.0652e-05,1.155e-05,0.0,0 STARLINK-5109,1 54002U 22125AQ  23321.89576581  .00001155  00000-0  90652-4 0  9991,2 54002  53.2194  27.3104 0001304  84.5235 275.5906 15.08838672 62379,6917.884,95.438,540.652,538.847,0.0
54002.0,STARLINK-5109,PAYLOAD,2023-11-18 03:51:26,15.08836855,0.0001337,53.2198,26.1213,85.0555,275.059,9.1356e-05,1.166e-05,0.0,0 STARLINK-5109,1 54002U 22125AQ  23322.16072748  .00001166  00000-0  91356-4 0  9992,2 54002  53.2198  26.1213 0001337  85.0555 275.0590 15.08836855 62463,6917.89,95.438,540.68,538.83,0.0
